{
  "type": "FeatureCollection",
  "features": [
    {
      "type": "Feature",
      "properties": {
        "norad_id": 30515,
        "name": "FENGYUN 1C DEB",
        "group": "fengyun-1c-debris",
        "lat": -11.873474700614244,
        "lon": 39.228873293792425,
        "alt_km": 1145.8463405573075,
        "timestamp": "2025-12-10T14:53:37.368866+00:00",
        "meta_object_name": "FENGYUN 1C DEB",
        "meta_object_id": "1999-025AJD",
        "meta_epoch": "2025-12-09T20:59:34.476576",
        "meta_mean_motion": 13.63775145,
        "meta_eccentricity": 0.04968916,
        "meta_inclination": 98.5089,
        "meta_ra_of_asc_node": 220.3766,
        "meta_arg_of_pericenter": 82.2223,
        "meta_mean_anomaly": 44.3788,
        "meta_ephemeris_type": 0,
        "meta_classification_type": "U",
        "meta_norad_cat_id": 30515,
        "meta_element_set_no": 999,
        "meta_rev_at_epoch": 93291,
        "meta_bstar": 0.0012299046,
        "meta_mean_motion_dot": 2.232e-05,
        "meta_mean_motion_ddot": 0,
        "tle_line1": "1 30515U 99025AJD 25343.87470459  .00002232  00000+0  12299-2 0  9993",
        "tle_line2": "2 30515  98.5089 220.3766 0496891  82.2223  44.3788 13.63775145932917"
      },
      "geometry": {
        "type": "Point",
        "coordinates": [
          39.228873293792425,
          -11.873474700614244
        ]
      }
    },
    {
      "type": "Feature",
      "properties": {
        "norad_id": 30516,
        "name": "FENGYUN 1C DEB",
        "group": "fengyun-1c-debris",
        "lat": 77.14644237799601,
        "lon": -48.33542344998568,
        "alt_km": 752.9792075272353,
        "timestamp": "2025-12-10T14:53:37.368875+00:00",
        "meta_object_name": "FENGYUN 1C DEB",
        "meta_object_id": "1999-025AJE",
        "meta_epoch": "2025-12-09T23:43:11.938368",
        "meta_mean_motion": 14.41276731,
        "meta_eccentricity": 0.00089,
        "meta_inclination": 98.8571,
        "meta_ra_of_asc_node": 87.902,
        "meta_arg_of_pericenter": 299.6169,
        "meta_mean_anomaly": 121.111,
        "meta_ephemeris_type": 0,
        "meta_classification_type": "U",
        "meta_norad_cat_id": 30516,
        "meta_element_set_no": 999,
        "meta_rev_at_epoch": 97675,
        "meta_bstar": 0.0032020009,
        "meta_mean_motion_dot": 0.00010322,
        "meta_mean_motion_ddot": 0,
        "tle_line1": "1 30516U 99025AJE 25343.98833262  .00010322  00000+0  32020-2 0  9994",
        "tle_line2": "2 30516  98.8571  87.9020 0008900 299.6169 121.1110 14.41276731976757"
      },
      "geometry": {
        "type": "Point",
        "coordinates": [
          -48.33542344998568,
          77.14644237799601
        ]
      }
    },
    {
      "type": "Feature",
      "properties": {
        "norad_id": 30520,
        "name": "FENGYUN 1C DEB",
        "group": "fengyun-1c-debris",
        "lat": 27.835102752434384,
        "lon": 152.47132589213314,
        "alt_km": 513.301626010606,
        "timestamp": "2025-12-10T14:53:37.368884+00:00",
        "meta_object_name": "FENGYUN 1C DEB",
        "meta_object_id": "1999-025AJJ",
        "meta_epoch": "2025-12-09T16:33:41.019840",
        "meta_mean_motion": 15.13864747,
        "meta_eccentricity": 0.00705952,
        "meta_inclination": 98.7191,
        "meta_ra_of_asc_node": 156.0551,
        "meta_arg_of_pericenter": 110.1804,
        "meta_mean_anomaly": 250.7035,
        "meta_ephemeris_type": 0,
        "meta_classification_type": "U",
        "meta_norad_cat_id": 30520,
        "meta_element_set_no": 999,
        "meta_rev_at_epoch": 995,
        "meta_bstar": 0.0015978347,
        "meta_mean_motion_dot": 0.00030763,
        "meta_mean_motion_ddot": 0,
        "tle_line1": "1 30520U 99025AJJ 25343.69005810  .00030763  00000+0  15978-2 0  9991",
        "tle_line2": "2 30520  98.7191 156.0551 0070595 110.1804 250.7035 15.13864747  9952"
      },
      "geometry": {
        "type": "Point",
        "coordinates": [
          152.47132589213314,
          27.835102752434384
        ]
      }
    },
    {
      "type": "Feature",
      "properties": {
        "norad_id": 30521,
        "name": "FENGYUN 1C DEB",
        "group": "fengyun-1c-debris",
        "lat": -75.83287270154109,
        "lon": -99.14839885227488,
        "alt_km": 611.3125603068074,
        "timestamp": "2025-12-10T14:53:37.368893+00:00",
        "meta_object_name": "FENGYUN 1C DEB",
        "meta_object_id": "1999-025AJK",
        "meta_epoch": "2025-12-10T05:28:11.661600",
        "meta_mean_motion": 14.58218114,
        "meta_eccentricity": 0.01356316,
        "meta_inclination": 98.9885,
        "meta_ra_of_asc_node": 119.2595,
        "meta_arg_of_pericenter": 251.366,
        "meta_mean_anomaly": 107.2769,
        "meta_ephemeris_type": 0,
        "meta_classification_type": "U",
        "meta_norad_cat_id": 30521,
        "meta_element_set_no": 999,
        "meta_rev_at_epoch": 99545,
        "meta_bstar": 0.0012491431,
        "meta_mean_motion_dot": 6.49e-05,
        "meta_mean_motion_ddot": 0,
        "tle_line1": "1 30521U 99025AJK 25344.22791275  .00006490  00000+0  12491-2 0  9996",
        "tle_line2": "2 30521  98.9885 119.2595 0135631 251.3660 107.2769 14.58218114995453"
      },
      "geometry": {
        "type": "Point",
        "coordinates": [
          -99.14839885227488,
          -75.83287270154109
        ]
      }
    },
    {
      "type": "Feature",
      "properties": {
        "norad_id": 30523,
        "name": "FENGYUN 1C DEB",
        "group": "fengyun-1c-debris",
        "lat": 36.05119138536342,
        "lon": -43.2033972444785,
        "alt_km": 756.0588626766612,
        "timestamp": "2025-12-10T14:53:37.368902+00:00",
        "meta_object_name": "FENGYUN 1C DEB",
        "meta_object_id": "1999-025AJM",
        "meta_epoch": "2025-12-10T04:43:36.312384",
        "meta_mean_motion": 14.27924843,
        "meta_eccentricity": 0.02441016,
        "meta_inclination": 98.4656,
        "meta_ra_of_asc_node": 322.6092,
        "meta_arg_of_pericenter": 115.9886,
        "meta_mean_anomaly": 266.938,
        "meta_ephemeris_type": 0,
        "meta_classification_type": "U",
        "meta_norad_cat_id": 30523,
        "meta_element_set_no": 999,
        "meta_rev_at_epoch": 98064,
        "meta_bstar": 0.0002303291,
        "meta_mean_motion_dot": 7.38e-06,
        "meta_mean_motion_ddot": 0,
        "tle_line1": "1 30523U 99025AJM 25344.19694806  .00000738  00000+0  23033-3 0  9990",
        "tle_line2": "2 30523  98.4656 322.6092 0244101 115.9886 266.9380 14.27924843980642"
      },
      "geometry": {
        "type": "Point",
        "coordinates": [
          -43.2033972444785,
          36.05119138536342
        ]
      }
    },
    {
      "type": "Feature",
      "properties": {
        "norad_id": 30524,
        "name": "FENGYUN 1C DEB",
        "group": "fengyun-1c-debris",
        "lat": -80.25486046192587,
        "lon": -130.55465646185814,
        "alt_km": 782.9626306551136,
        "timestamp": "2025-12-10T14:53:37.368911+00:00",
        "meta_object_name": "FENGYUN 1C DEB",
        "meta_object_id": "1999-025AJN",
        "meta_epoch": "2025-12-09T22:03:17.029440",
        "meta_mean_motion": 13.92125727,
        "meta_eccentricity": 0.0207976,
        "meta_inclination": 99.3079,
        "meta_ra_of_asc_node": 156.0124,
        "meta_arg_of_pericenter": 257.8238,
        "meta_mean_anomaly": 99.9557,
        "meta_ephemeris_type": 0,
        "meta_classification_type": "U",
        "meta_norad_cat_id": 30524,
        "meta_element_set_no": 999,
        "meta_rev_at_epoch": 93846,
        "meta_bstar": 0.0080356848,
        "meta_mean_motion_dot": 0.00012243,
        "meta_mean_motion_ddot": 0,
        "tle_line1": "1 30524U 99025AJN 25343.91894710  .00012243  00000+0  80357-2 0  9991",
        "tle_line2": "2 30524  99.3079 156.0124 0207976 257.8238  99.9557 13.92125727938461"
      },
      "geometry": {
        "type": "Point",
        "coordinates": [
          -130.55465646185814,
          -80.25486046192587
        ]
      }
    },
    {
      "type": "Feature",
      "properties": {
        "norad_id": 30525,
        "name": "FENGYUN 1C DEB",
        "group": "fengyun-1c-debris",
        "lat": 49.60283811718966,
        "lon": -140.2709863015241,
        "alt_km": 1050.481448249101,
        "timestamp": "2025-12-10T14:53:37.368920+00:00",
        "meta_object_name": "FENGYUN 1C DEB",
        "meta_object_id": "1999-025AJP",
        "meta_epoch": "2025-12-09T15:40:29.860896",
        "meta_mean_motion": 13.58593934,
        "meta_eccentricity": 0.0293885,
        "meta_inclination": 98.6018,
        "meta_ra_of_asc_node": 229.1247,
        "meta_arg_of_pericenter": 317.5359,
        "meta_mean_anomaly": 40.3379,
        "meta_ephemeris_type": 0,
        "meta_classification_type": "U",
        "meta_norad_cat_id": 30525,
        "meta_element_set_no": 999,
        "meta_rev_at_epoch": 93075,
        "meta_bstar": 0.0024979,
        "meta_mean_motion_dot": 2.379e-05,
        "meta_mean_motion_ddot": 0,
        "tle_line1": "1 30525U 99025AJP 25343.65312339  .00002379  00000+0  24979-2 0  9992",
        "tle_line2": "2 30525  98.6018 229.1247 0293885 317.5359  40.3379 13.58593934930754"
      },
      "geometry": {
        "type": "Point",
        "coordinates": [
          -140.2709863015241,
          49.60283811718966
        ]
      }
    }
  ]
}